DUBAISAT-1              
1 35682U 09041B   26179.62043126  .00000858  00000+0  13459-3 0  9992
2 35682  98.0064 312.7535 0011157  40.5889 319.6149 14.75141339906789
OCEANSAT-2              
1 35931U 09051A   26179.56580808 -.00000229  00000+0 -13077-3 0  9996
2 35931  98.2319 165.2817 0016136 202.0595 157.9879 13.99660732880924
WORLDVIEW-2 (WV-2)      
1 35946U 09055A   26179.57590148  .00000106  00000+0  49720-4 0  9992
2 35946  98.4765 252.8692 0004435 172.8306 187.2945 14.37902473877283
SMOS                    
1 36036U 09059A   26179.51729164  .00000235  00000+0  88803-4 0  9991
2 36036  98.4424   6.6862 0001312  88.4561 271.6778 14.39778388875082
YAOGAN-7                
1 36110U 09069A   26179.59764668  .00000460  00000+0  70769-4 0  9993
2 36110  98.0059  65.3936 0024752   5.9291 354.2208 14.78020672891315
TANDEM-X                
1 36605U 10030A   26179.52106836  .00000368  00000+0  20706-4 0  9995
2 36605  97.4452 187.0658 0001714  96.0250 264.1180 15.19148500888362
CARTOSAT-2B             
1 36795U 10035A   26179.64050609  .00001228  00000+0  17452-3 0  9998
2 36795  97.9953 230.1174 0012125 147.3965 212.7997 14.78677297861547
YAOGAN-10               
1 36834U 10038A   26179.67864010  .00001028  00000+0  12567-3 0  9997
2 36834  97.8974 202.9909 0001675  83.6076  32.0154 14.85381453858918
COSMO-SKYMED 4          
1 37216U 10060A   26179.65050137  .00000056  00000+0  13567-4 0  9994
2 37216  97.8884   3.0842 0001451  86.2255 273.9125 14.82152558846267
RESOURCESAT-2           
1 37387U 11015A   26179.63180086  .00000085  00000+0  59067-4 0  9996
2 37387  98.7641 246.9944 0010630 219.4907 140.5497 14.21602441787800
HAIYANG-2A              
1 37781U 11043A   26179.61463737  .00000053  00000+0  10282-3 0  9990
2 37781  99.3392 182.0346 0004944  67.6761 292.4912 13.74025258748220
RASAT                   
1 37791U 11044D   26179.63594056  .00000422  00000+0  81593-4 0  9997
2 37791  98.0583 270.8584 0021062 152.5071 315.5083 14.68176635794864
SRMSAT                  
1 37841U 11058D   26179.52740243  .00000375  00000+0  59605-4 0  9993
2 37841  19.9735 350.8310 0011741 329.1506  73.8720 14.11577807759424
PLEIADES 1A             
1 38012U 11076F   26179.66978263  .00000457  00000+0  10820-3 0  9990
2 38012  98.1980 254.6185 0001778  88.1823  73.1744 14.58538328773667
ZIYUAN 1-02C (ZY 1-02C) 
1 38038U 11079A   26179.64370763  .00000501  00000+0  17914-3 0  9991
2 38038  98.4074 246.7129 0005124 275.7130 246.5835 14.38224041760852
ARIRANG-3 (KOMPSAT-3)   
1 38338U 12025B   26179.59744437  .00000407  00000+0  90082-4 0  9996
2 38338  98.1175 136.8607 0006805  80.9580 279.2391 14.62215694753017
EXACTVIEW-1 (ADS-1B)    
1 38709U 12039C   26179.61573994  .00000102  00000+0  63575-4 0  9993
2 38709  98.9790 297.2647 0011683 135.0968 225.1157 14.24987768724337
SPOT 6                  
1 38755U 12047A   26179.65434235  .00000555  00000+0  12941-3 0  9993
2 38755  98.2122 246.8291 0001312  74.0871 286.0473 14.58530077734723
PLEIADES 1B             
1 39019U 12068A   26179.60455293  .00000614  00000+0  14176-3 0  9990
2 39019  98.1950 254.4991 0001728  84.1858 275.9538 14.58568319722518
GOKTURK 2               
1 39030U 12073A   26179.60896730  .00000268  00000+0  46281-4 0  9992
2 39030  97.6815  16.4680 0001146  60.0436 300.0887 14.75553509726194
LANDSAT 8               
1 39084U 13008A   26179.56132231  .00000303  00000+0  77392-4 0  9991
2 39084  98.2299 249.5613 0001354  93.7132 266.4221 14.57101652699552
SARAL                   
1 39086U 13009A   26179.63279678  .00000081  00000+0  45629-4 0  9990
2 39086  98.5557   6.0550 0000793 219.5264 140.5862 14.32858603697245
GAOFEN-1                
1 39150U 13018A   26179.65115860  .00001052  00000+0  15783-3 0  9992
2 39150  97.9097 251.4864 0015949 226.1986 133.7906 14.76550826709934
VNREDSAT 1              
1 39160U 13021B   26179.63286979  .00000564  00000+0  11402-3 0  9996
2 39160  97.9080 232.6099 0001735  83.5334 276.6068 14.64868247701965
ARIRANG-5 (KOMPSAT-5)   
1 39227U 13042A   26179.60562747  .00001947  00000+0  14336-3 0  9995
2 39227  97.6188   6.1446 0005100  96.1099 264.0709 15.04520622705574
SKYSAT-A                
1 39418U 13066C   26179.63267081  .00002668  00000+0  15397-3 0  9998
2 39418  97.3810 228.6650 0019651 274.7349  85.1638 15.13033175690210
DUBAISAT-2              
1 39419U 13066D   26179.59957591  .00001736  00000+0  10978-3 0  9991
2 39419  97.4554 169.4454 0011174   3.6843 356.4467 15.10258167688118
GPM-CORE                
1 39574U 14009C   26179.60421448  .00009510  00000+0  20663-3 0  9990
2 39574  64.9722 269.8837 0011390 256.2389 103.7484 15.44806141699579
SENTINEL-1A             
1 39634U 14016A   26179.61319979  .00000181  00000+0  48163-4 0  9992
2 39634  98.1775 186.9791 0001355  80.9874 279.1479 14.59198822651689
KAZEOSAT 1              
1 39731U 14024A   26179.60890935  .00000355  00000+0  12103-3 0  9991
2 39731  98.3209 251.7724 0001221  74.9139 285.2186 14.42085006640207
