OBJECT_NAME,OBJECT_ID,EPOCH,MEAN_MOTION,ECCENTRICITY,INCLINATION,RA_OF_ASC_NODE,ARG_OF_PERICENTER,MEAN_ANOMALY,EPHEMERIS_TYPE,CLASSIFICATION_TYPE,NORAD_CAT_ID,ELEMENT_SET_NO,REV_AT_EPOCH,BSTAR,MEAN_MOTION_DOT,MEAN_MOTION_DDOT
DUBAISAT-1,2009-041B,2026-06-28T14:53:25.260864,14.75141339,.0011157,98.0064,312.7535,40.5889,319.6149,0,U,35682,999,90678,.13458723E-3,.858E-5,0
OCEANSAT-2,2009-051A,2026-06-28T13:34:45.818112,13.99660732,.00161363,98.2319,165.2817,202.0595,157.9879,0,U,35931,999,88092,-.13077092E-3,-.229E-5,0
WORLDVIEW-2 (WV-2),2009-055A,2026-06-28T13:49:17.887872,14.37902473,.00044355,98.4765,252.8692,172.8306,187.2945,0,U,35946,999,87728,.49720375E-4,.106E-5,0
SMOS,2009-059A,2026-06-28T12:24:53.997696,14.39778388,.00013128,98.4424,6.6862,88.4561,271.6778,0,U,36036,999,87508,.88802736E-4,.235E-5,0
YAOGAN-7,2009-069A,2026-06-28T14:20:36.673152,14.78020672,.00247523,98.0059,65.3936,5.9291,354.2208,0,U,36110,999,89131,.70768883E-4,.46E-5,0
TANDEM-X,2010-030A,2026-06-28T12:30:20.306304,15.19148500,.00017143,97.4452,187.0658,96.0250,264.1180,0,U,36605,999,88836,.2070632E-4,.368E-5,0
CARTOSAT-2B,2010-035A,2026-06-28T15:22:19.726176,14.78677297,.00121253,97.9953,230.1174,147.3965,212.7997,0,U,36795,999,86154,.17451771E-3,.1228E-4,0
YAOGAN-10,2010-038A,2026-06-28T16:17:14.504640,14.85381453,.00016754,97.8974,202.9909,83.6076,32.0154,0,U,36834,999,85891,.12567495E-3,.1028E-4,0
COSMO-SKYMED 4,2010-060A,2026-06-28T15:36:43.318368,14.82152558,.00014518,97.8884,3.0842,86.2255,273.9125,0,U,37216,999,84626,.13566802E-4,.56E-6,0
RESOURCESAT-2,2011-015A,2026-06-28T15:09:47.594304,14.21602441,.00106307,98.7641,246.9944,219.4907,140.5497,0,U,37387,999,78780,.59066851E-4,.85E-6,0
HAIYANG-2A,2011-043A,2026-06-28T14:45:04.668768,13.74025258,.00049442,99.3392,182.0346,67.6761,292.4912,0,U,37781,999,74822,.10282315E-3,.53E-6,0
RASAT,2011-044D,2026-06-28T15:15:45.264384,14.68176635,.00210623,98.0583,270.8584,152.5071,315.5083,0,U,37791,999,79486,.81592543E-4,.422E-5,0
SRMSAT,2011-058D,2026-06-28T12:39:27.569952,14.11577807,.00117412,19.9735,350.8310,329.1506,73.8720,0,U,37841,999,75942,.59605421E-4,.375E-5,0
PLEIADES 1A,2011-076F,2026-06-28T16:04:29.219232,14.58538328,.00017787,98.1980,254.6185,88.1823,73.1744,0,U,38012,999,77366,.10819913E-3,.457E-5,0
ZIYUAN 1-02C (ZY 1-02C),2011-079A,2026-06-28T15:26:56.339232,14.38224041,.00051249,98.4074,246.7129,275.7130,246.5835,0,U,38038,999,76085,.17914337E-3,.501E-5,0
ARIRANG-3 (KOMPSAT-3),2012-025B,2026-06-28T14:20:19.193568,14.62215694,.00068057,98.1175,136.8607,80.9580,279.2391,0,U,38338,999,75301,.90081971E-4,.407E-5,0
EXACTVIEW-1 (ADS-1B),2012-039C,2026-06-28T14:46:39.930816,14.24987768,.00116836,98.9790,297.2647,135.0968,225.1157,0,U,38709,999,72433,.63575017E-4,.102E-5,0
SPOT 6,2012-047A,2026-06-28T15:42:15.179040,14.58530077,.00013128,98.2122,246.8291,74.0871,286.0473,0,U,38755,999,73472,.12941486E-3,.555E-5,0
PLEIADES 1B,2012-068A,2026-06-28T14:30:33.373152,14.58568319,.00017286,98.1950,254.4991,84.1858,275.9538,0,U,39019,999,72251,.14176039E-3,.614E-5,0
GOKTURK 2,2012-073A,2026-06-28T14:36:54.774720,14.75553509,.00011467,97.6815,16.4680,60.0436,300.0887,0,U,39030,999,72619,.46280984E-4,.268E-5,0
LANDSAT 8,2013-008A,2026-06-28T13:28:18.247584,14.57101652,.00013549,98.2299,249.5613,93.7132,266.4221,0,U,39084,999,69955,.7739163E-4,.303E-5,0
SARAL,2013-009A,2026-06-28T15:11:13.641792,14.32858603,.00007939,98.5557,6.0550,219.5264,140.5862,0,U,39086,999,69724,.45628881E-4,.81E-6,0
GAOFEN-1,2013-018A,2026-06-28T15:37:40.103040,14.76550826,.00159496,97.9097,251.4864,226.1986,133.7906,0,U,39150,999,70993,.15782656E-3,.1052E-4,0
VNREDSAT 1,2013-021B,2026-06-28T15:11:19.949856,14.64868247,.00017358,97.9080,232.6099,83.5334,276.6068,0,U,39160,999,70196,.11401948E-3,.564E-5,0
ARIRANG-5 (KOMPSAT-5),2013-042A,2026-06-28T14:32:06.213408,15.04520622,.00051009,97.6188,6.1446,96.1099,264.0709,0,U,39227,999,70557,.14335688E-3,.1947E-4,0
SKYSAT-A,2013-066C,2026-06-28T15:11:02.757984,15.13033175,.00196514,97.3810,228.6650,274.7349,85.1638,0,U,39418,999,69021,.15397165E-3,.2668E-4,0
DUBAISAT-2,2013-066D,2026-06-28T14:23:23.358624,15.10258167,.00111746,97.4554,169.4454,3.6843,356.4467,0,U,39419,999,68811,.10978053E-3,.1736E-4,0
GPM-CORE,2014-009C,2026-06-28T14:30:04.131072,15.44806141,.00113905,64.9722,269.8837,256.2389,103.7484,0,U,39574,999,69957,.20662721E-3,.951E-4,0
SENTINEL-1A,2014-016A,2026-06-28T14:43:00.461856,14.59198822,.00013557,98.1775,186.9791,80.9874,279.1479,0,U,39634,999,65168,.48163363E-4,.181E-5,0
KAZEOSAT 1,2014-024A,2026-06-28T14:36:49.767840,14.42085006,.00012216,98.3209,251.7724,74.9139,285.2186,0,U,39731,999,64020,.12103096E-3,.355E-5,0
